{"type": "FeatureCollection", "features": [ {"type": "Feature", "properties": {"norad_id": 59598, "name": "GSAT0225 (GALILEO 29)", "group": "gnss", "lat": -51.174284872378365, "lon": 45.71834878353773, "alt_km": 23229.458180325833, "timestamp": "2025-12-19T04:59:48.549525+00:00", "meta": {"OBJECT_NAME": "GSAT0225 (GALILEO 29)", "OBJECT_ID": "2024-079A", "EPOCH": "2025-12-16T09:22:38.225280", "MEAN_MOTION": 1.70475011, "ECCENTRICITY": 0.00021396, "INCLINATION": 55.0038, "RA_OF_ASC_NODE": 106.1932, "ARG_OF_PERICENTER": 182.0305, "MEAN_ANOMALY": 176.7742, "EPHEMERIS_TYPE": 0, "CLASSIFICATION_TYPE": "U", "NORAD_CAT_ID": 59598, "ELEMENT_SET_NO": 999, "REV_AT_EPOCH": 1019, "BSTAR": 0, "MEAN_MOTION_DOT": -1e-07, "MEAN_MOTION_DDOT": 0}, "tle": {"line1": "1 59598U 24079A   25350.39072020 -.00000010  00000+0  00000+0 0  9996", "line2": "2 59598  55.0038 106.1932 0002139 182.0305 176.7742  1.70475011 10196"}}, "geometry": {"type": "Point", "coordinates": [45.71834878353773, -51.174284872378365]}}, {"type": "Feature", "properties": {"norad_id": 59600, "name": "GSAT0227 (GALILEO 30)", "group": "gnss", "lat": 3.6516161763552435, "lon": -76.45574086046885, "alt_km": 23217.323940844028, "timestamp": "2025-12-19T04:59:48.549536+00:00", "meta": {"OBJECT_NAME": "GSAT0227 (GALILEO 30)", "OBJECT_ID": "2024-079C", "EPOCH": "2025-12-17T17:58:49.575360", "MEAN_MOTION": 1.704749, "ECCENTRICITY": 0.00029705, "INCLINATION": 54.9996, "RA_OF_ASC_NODE": 106.1542, "ARG_OF_PERICENTER": 116.5176, "MEAN_ANOMALY": 243.4717, "EPHEMERIS_TYPE": 0, "CLASSIFICATION_TYPE": "U", "NORAD_CAT_ID": 59600, "ELEMENT_SET_NO": 999, "REV_AT_EPOCH": 1027, "BSTAR": 0, "MEAN_MOTION_DOT": -9e-08, "MEAN_MOTION_DDOT": 0}, "tle": {"line1": "1 59600U 24079C   25351.74918490 -.00000009  00000+0  00000+0 0  9998", "line2": "2 59600  54.9996 106.1542 0002970 116.5176 243.4717  1.70474900 10278"}}, "geometry": {"type": "Point", "coordinates": [-76.45574086046885, 3.6516161763552435]}}, {"type": "Feature", "properties": {"norad_id": 61182, "name": "GSAT0232 (GALILEO 32)", "group": "gnss", "lat": 8.066904431813011, "lon": -128.0886352396277, "alt_km": 23226.713408963093, "timestamp": "2025-12-19T04:59:48.549547+00:00", "meta": {"OBJECT_NAME": "GSAT0232 (GALILEO 32)", "OBJECT_ID": "2024-167A", "EPOCH": "2025-12-18T08:17:33.319392", "MEAN_MOTION": 1.70473695, "ECCENTRICITY": 0.0001893, "INCLINATION": 55.239, "RA_OF_ASC_NODE": 226.2771, "ARG_OF_PERICENTER": 209.3432, "MEAN_ANOMALY": 351.1487, "EPHEMERIS_TYPE": 0, "CLASSIFICATION_TYPE": "U", "NORAD_CAT_ID": 61182, "ELEMENT_SET_NO": 999, "REV_AT_EPOCH": 779, "BSTAR": 0, "MEAN_MOTION_DOT": 6.2e-07, "MEAN_MOTION_DDOT": 0}, "tle": {"line1": "1 61182U 24167A   25352.34552453  .00000062  00000+0  00000+0 0  9992", "line2": "2 61182  55.2390 226.2771 0001893 209.3432 351.1487  1.70473695  7799"}}, "geometry": {"type": "Point", "coordinates": [-128.0886352396277, 8.066904431813011]}}, {"type": "Feature", "properties": {"norad_id": 61183, "name": "GSAT0226 (GALILEO 31)", "group": "gnss", "lat": 43.842040299192604, "lon": 4.473112724539253, "alt_km": 23213.970773998124, "timestamp": "2025-12-19T04:59:48.549561+00:00", "meta": {"OBJECT_NAME": "GSAT0226 (GALILEO 31)", "OBJECT_ID": "2024-167B", "EPOCH": "2025-12-18T17:01:42.722400", "MEAN_MOTION": 1.70473755, "ECCENTRICITY": 0.00010459, "INCLINATION": 55.2376, "RA_OF_ASC_NODE": 226.2726, "ARG_OF_PERICENTER": 106.7871, "MEAN_ANOMALY": 69.7575, "EPHEMERIS_TYPE": 0, "CLASSIFICATION_TYPE": "U", "NORAD_CAT_ID": 61183, "ELEMENT_SET_NO": 999, "REV_AT_EPOCH": 777, "BSTAR": 0, "MEAN_MOTION_DOT": 6.4e-07, "MEAN_MOTION_DDOT": 0}, "tle": {"line1": "1 61183U 24167B   25352.70952225  .00000064  00000+0  00000+0 0  9996", "line2": "2 61183  55.2376 226.2726 0001045 106.7871  69.7575  1.70473755  7775"}}, "geometry": {"type": "Point", "coordinates": [4.473112724539253, 43.842040299192604]}}, {"type": "Feature", "properties": {"norad_id": 61186, "name": "BEIDOU-3 M25 (C47)", "group": "gnss", "lat": 49.29546996855798, "lon": 72.90365436095348, "alt_km": 21537.3597851503, "timestamp": "2025-12-19T04:59:48.549574+00:00", "meta": {"OBJECT_NAME": "BEIDOU-3 M25 (C47)", "OBJECT_ID": "2024-168B", "EPOCH": "2025-12-18T00:39:01.420992", "MEAN_MOTION": 1.86230296, "ECCENTRICITY": 0.00054425, "INCLINATION": 54.6373, "RA_OF_ASC_NODE": 308.537, "ARG_OF_PERICENTER": 299.044, "MEAN_ANOMALY": 100.6746, "EPHEMERIS_TYPE": 0, "CLASSIFICATION_TYPE": "U", "NORAD_CAT_ID": 61186, "ELEMENT_SET_NO": 999, "REV_AT_EPOCH": 841, "BSTAR": 0, "MEAN_MOTION_DOT": -8.7e-07, "MEAN_MOTION_DDOT": 0}, "tle": {"line1": "1 61186U 24168B   25352.02709978 -.00000087  00000+0  00000+0 0  9996", "line2": "2 61186  54.6373 308.5370 0005442 299.0440 100.6746  1.86230296  8415"}}, "geometry": {"type": "Point", "coordinates": [72.90365436095348, 49.29546996855798]}}, {"type": "Feature", "properties": {"norad_id": 61187, "name": "BEIDOU-3 M27 (C49)", "group": "gnss", "lat": -48.430130759839464, "lon": -178.3982959694915, "alt_km": 21533.863849522673, "timestamp": "2025-12-19T04:59:48.549586+00:00", "meta": {"OBJECT_NAME": "BEIDOU-3 M27 (C49)", "OBJECT_ID": "2024-168C", "EPOCH": "2025-12-18T11:15:38.296800", "MEAN_MOTION": 1.86230443, "ECCENTRICITY": 0.00025049, "INCLINATION": 54.6324, "RA_OF_ASC_NODE": 308.5054, "ARG_OF_PERICENTER": 339.4033, "MEAN_ANOMALY": 131.6614, "EPHEMERIS_TYPE": 0, "CLASSIFICATION_TYPE": "U", "NORAD_CAT_ID": 61187, "ELEMENT_SET_NO": 999, "REV_AT_EPOCH": 589, "BSTAR": 0, "MEAN_MOTION_DOT": -8.4e-07, "MEAN_MOTION_DDOT": 0}, "tle": {"line1": "1 61187U 24168C   25352.46919325 -.00000084  00000+0  00000+0 0  9991", "line2": "2 61187  54.6324 308.5054 0002504 339.4033 131.6614  1.86230443  5895"}}, "geometry": {"type": "Point", "coordinates": [-178.3982959694915, -48.430130759839464]}}, {"type": "Feature", "properties": {"norad_id": 62339, "name": "GPS BIII-7  (PRN 01)", "group": "gnss", "lat": -50.73784039114469, "lon": -139.25363947135324, "alt_km": 20189.934781823173, "timestamp": "2025-12-19T04:59:48.549597+00:00", "meta": {"OBJECT_NAME": "GPS BIII-7  (PRN 01)", "OBJECT_ID": "2024-242A", "EPOCH": "2025-12-18T08:46:28.895808", "MEAN_MOTION": 2.00568182, "ECCENTRICITY": 0.0012509, "INCLINATION": 54.922, "RA_OF_ASC_NODE": 341.5124, "ARG_OF_PERICENTER": 345.6877, "MEAN_ANOMALY": 17.1618, "EPHEMERIS_TYPE": 0, "CLASSIFICATION_TYPE": "U", "NORAD_CAT_ID": 62339, "ELEMENT_SET_NO": 999, "REV_AT_EPOCH": 763, "BSTAR": 0, "MEAN_MOTION_DOT": -8.5e-07, "MEAN_MOTION_DDOT": 0}, "tle": {"line1": "1 62339U 24242A   25352.36561222 -.00000085  00000+0  00000+0 0  9993", "line2": "2 62339  54.9220 341.5124 0012509 345.6877  17.1618  2.00568182  7636"}}, "geometry": {"type": "Point", "coordinates": [-139.25363947135324, -50.73784039114469]}}, {"type": "Feature", "properties": {"norad_id": 62850, "name": "NVS-02 (IRNSS-1K)", "group": "gnss", "lat": -10.051756473651748, "lon": 172.8613925313556, "alt_km": 37196.018767668415, "timestamp": "2025-12-19T04:59:48.549611+00:00", "meta": {"OBJECT_NAME": "NVS-02 (IRNSS-1K)", "OBJECT_ID": "2025-020A", "EPOCH": "2025-12-18T01:29:52.441728", "MEAN_MOTION": 2.17599272, "ECCENTRICITY": 0.73474385, "INCLINATION": 20.9702, "RA_OF_ASC_NODE": 325.733, "ARG_OF_PERICENTER": 29.685, "MEAN_ANOMALY": 356.832, "EPHEMERIS_TYPE": 0, "CLASSIFICATION_TYPE": "U", "NORAD_CAT_ID": 62850, "ELEMENT_SET_NO": 999, "REV_AT_EPOCH": 703, "BSTAR": 0.00017861505, "MEAN_MOTION_DOT": 3.61e-06, "MEAN_MOTION_DDOT": 0}, "tle": {"line1": "1 62850U 25020A   25352.06241252  .00000361  00000+0  17862-3 0  9995", "line2": "2 62850  20.9702 325.7330 7347438  29.6850 356.8320  2.17599272  7033"}}, "geometry": {"type": "Point", "coordinates": [172.8613925313556, -10.051756473651748]}}, {"type": "Feature", "properties": {"norad_id": 62876, "name": "QZS-6 (QZSS/PRN 200)", "group": "gnss", "lat": -0.027267519513178563, "lon": -106.46710405334449, "alt_km": 35780.00759422257, "timestamp": "2025-12-19T04:59:48.549625+00:00", "meta": {"OBJECT_NAME": "QZS-6 (QZSS/PRN 200)", "OBJECT_ID": "2025-023A", "EPOCH": "2025-12-18T15:26:14.366112", "MEAN_MOTION": 1.00273059, "ECCENTRICITY": 0.00014897, "INCLINATION": 0.0457, "RA_OF_ASC_NODE": 67.1424, "ARG_OF_PERICENTER": 210.3648, "MEAN_ANOMALY": 132.0918, "EPHEMERIS_TYPE": 0, "CLASSIFICATION_TYPE": "U", "NORAD_CAT_ID": 62876, "ELEMENT_SET_NO": 999, "REV_AT_EPOCH": 314, "BSTAR": 0, "MEAN_MOTION_DOT": -2.09e-06, "MEAN_MOTION_DDOT": 0}, "tle": {"line1": "1 62876U 25023A   25352.64322183 -.00000209  00000+0  00000+0 0  9997", "line2": "2 62876   0.0457  67.1424 0001489 210.3648 132.0918  1.00273059  3146"}}, "geometry": {"type": "Point", "coordinates": [-106.46710405334449, -0.027267519513178563]}}, {"type": "Feature", "properties": {"norad_id": 63130, "name": "COSMOS 2584 (704K)", "group": "gnss", "lat": -19.500429758183092, "lon": -91.56047925183938, "alt_km": 19113.927987525858, "timestamp": "2025-12-19T04:59:48.549637+00:00", "meta": {"OBJECT_NAME": "COSMOS 2584 (704K)", "OBJECT_ID": "2025-042A", "EPOCH": "2025-12-18T11:25:35.911776", "MEAN_MOTION": 2.13103072, "ECCENTRICITY": 0.00077091, "INCLINATION": 64.979, "RA_OF_ASC_NODE": 78.9506, "ARG_OF_PERICENTER": 218.5301, "MEAN_ANOMALY": 141.4378, "EPHEMERIS_TYPE": 0, "CLASSIFICATION_TYPE": "U", "NORAD_CAT_ID": 63130, "ELEMENT_SET_NO": 999, "REV_AT_EPOCH": 619, "BSTAR": 0, "MEAN_MOTION_DOT": -3.8e-07, "MEAN_MOTION_DDOT": 0}, "tle": {"line1": "1 63130U 25042A   25352.47611009 -.00000038  00000+0  00000+0 0  9991", "line2": "2 63130  64.9790  78.9506 0007709 218.5301 141.4378  2.13103072  6191"}}, "geometry": {"type": "Point", "coordinates": [-91.56047925183938, -19.500429758183092]}}]}